STARLINK-30535          
1 58001U 23153L   26068.05566297 -.00000365  00000+0 -39061-5 0  9999
2 58001  42.9996  70.2617 0001859 273.2776  86.7863 15.26739724134805
FLOCK 4G-18             
1 62680U 25009BZ  26068.19114186  .00011766  00000+0  44319-3 0  9995
2 62680  97.4054 150.5008 0004100 335.7331  24.3715 15.27241676121267
